STARLINK - 2019-029BM              
1 44294U 19029BM  19146.90854962  .00000961  00000-0  35445-4 0  9999
2 44294  52.9981 162.0243 0002374 219.9987 244.6851 15.38220792  1604